start=new Date('2022-12-09T00:00:00.000Z').valueOf();
sats=[{"TLE_LINE1":"1 44972U 20001BL  22342.42333626  .00000048  00000-0  22112-4 0  9995","DECAY_DATE":null,"CLASSIFICATION_TYPE":"U","MEAN_MOTION":"15.06419980","REV_AT_EPOCH":"16146","TIME_SYSTEM":"UTC","APOAPSIS":"547.411","ARG_OF_PERICENTER":"22.8421","RCS_SIZE":"LARGE","TLE_LINE2":"2 44972  53.0549 236.4701 0000373  22.8421 337.2584 15.06419980161462","BSTAR":"0.00002211200000","SITE":"AFETR","MEAN_MOTION_DDOT":"0.0000000000000","OBJECT_ID":"2020-001BL","OBJECT_NAME":"STARLINK-1107","ELEMENT_SET_NO":"999","ECCENTRICITY":"0.00003730","FILE":"3684859","GP_ID":"219785011","REF_FRAME":"TEME","MEAN_MOTION_DOT":"0.00000048","EPOCH":"2022-12-08T10:09:36.252864","PERIAPSIS":"546.894","MEAN_ANOMALY":"337.2584","OBJECT_TYPE":"PAYLOAD","NORAD_CAT_ID":"44972","LAUNCH_DATE":"2020-01-07","EPHEMERIS_TYPE":"0","CENTER_NAME":"EARTH","MEAN_ELEMENT_THEORY":"SGP4","RA_OF_ASC_NODE":"236.4701","PERIOD":"95.591","COUNTRY_CODE":"US","SEMIMAJOR_AXIS":"6925.287","INCLINATION":"53.0549"},{"OBJECT_ID":"2020-001BM","MEAN_MOTION_DDOT":"0.0000000000000","SITE":"AFETR","FILE":"3684614","ECCENTRICITY":"0.00015110","ELEMENT_SET_NO":"999","OBJECT_NAME":"STARLINK-1115","REV_AT_EPOCH":"16145","CLASSIFICATION_TYPE":"U","DECAY_DATE":null,"MEAN_MOTION":"15.06411493","TLE_LINE1":"1 44973U 20001BM  22342.40122546  .00003155  00000-0  23051-3 0  9995","BSTAR":"0.00023051000000","TLE_LINE2":"2 44973  53.0550 236.5647 0001511  68.6540 291.4610 15.06411493161451","RCS_SIZE":"LARGE","ARG_OF_PERICENTER":"68.6540","APOAPSIS":"548.225","TIME_SYSTEM":"UTC","EPHEMERIS_TYPE":"0","LAUNCH_DATE":"2020-01-07","OBJECT_TYPE":"PAYLOAD","NORAD_CAT_ID":"44973","EPOCH":"2022-12-08T09:37:45.879744","PERIAPSIS":"546.132","MEAN_ANOMALY":"291.4610","INCLINATION":"53.0550","SEMIMAJOR_AXIS":"6925.313","COUNTRY_CODE":"US","RA_OF_ASC_NODE":"236.5647","PERIOD":"95.591","MEAN_ELEMENT_THEORY":"SGP4","CENTER_NAME":"EARTH","GP_ID":"219772592","MEAN_MOTION_DOT":"0.00003155","REF_FRAME":"TEME"},{"GP_ID":"219771599","MEAN_MOTION_DOT":"-0.00000154","REF_FRAME":"TEME","EPHEMERIS_TYPE":"0","LAUNCH_DATE":"2020-01-29","OBJECT_TYPE":"PAYLOAD","NORAD_CAT_ID":"45044","PERIAPSIS":"546.167","MEAN_ANOMALY":"293.1892","EPOCH":"2022-12-08T07:25:05.926368","INCLINATION":"53.0540","SEMIMAJOR_AXIS":"6925.360","COUNTRY_CODE":"US","PERIOD":"95.592","RA_OF_ASC_NODE":"196.9731","MEAN_ELEMENT_THEORY":"SGP4","CENTER_NAME":"EARTH","REV_AT_EPOCH":"15777","DECAY_DATE":null,"MEAN_MOTION":"15.06396414","CLASSIFICATION_TYPE":"U","TLE_LINE1":"1 45044U 20006A   22342.30909637 -.00000154  00000-0  85484-5 0  9990","BSTAR":"0.00000854840000","RCS_SIZE":"LARGE","TLE_LINE2":"2 45044  53.0540 196.9731 0001527  66.9258 293.1892 15.06396414157773","ARG_OF_PERICENTER":"66.9258","APOAPSIS":"548.282","TIME_SYSTEM":"UTC","OBJECT_ID":"2020-006A","MEAN_MOTION_DDOT":"0.0000000000000","SITE":"AFETR","FILE":"3684614","ECCENTRICITY":"0.00015270","ELEMENT_SET_NO":"999","OBJECT_NAME":"STARLINK-1132"},{"NORAD_CAT_ID":"45045","OBJECT_TYPE":"PAYLOAD","LAUNCH_DATE":"2020-01-29","EPHEMERIS_TYPE":"0","PERIAPSIS":"546.069","MEAN_ANOMALY":"298.5141","EPOCH":"2022-12-08T08:40:41.540160","MEAN_ELEMENT_THEORY":"SGP4","PERIOD":"95.592","RA_OF_ASC_NODE":"216.7350","SEMIMAJOR_AXIS":"6925.354","COUNTRY_CODE":"US","INCLINATION":"53.0541","CENTER_NAME":"EARTH","GP_ID":"219771847","MEAN_MOTION_DOT":"-0.00000005","REF_FRAME":"TEME","MEAN_MOTION_DDOT":"0.0000000000000","OBJECT_ID":"2020-006B","SITE":"AFETR","FILE":"3684614","OBJECT_NAME":"STARLINK-1120","ELEMENT_SET_NO":"999","ECCENTRICITY":"0.00016610","CLASSIFICATION_TYPE":"U","DECAY_DATE":null,"MEAN_MOTION":"15.06398250","REV_AT_EPOCH":"15750","TLE_LINE1":"1 45045U 20006B   22342.36159190 -.00000005  00000-0  18569-4 0  9992","TLE_LINE2":"2 45045  53.0541 216.7350 0001661  61.6015 298.5141 15.06398250157502","RCS_SIZE":"LARGE","BSTAR":"0.00001856900000","TIME_SYSTEM":"UTC","APOAPSIS":"548.369","ARG_OF_PERICENTER":"61.6015"},{"GP_ID":"219773099","REF_FRAME":"TEME","MEAN_MOTION_DOT":"0.00047225","PERIAPSIS":"486.631","EPOCH":"2022-12-08T13:14:18.827520","MEAN_ANOMALY":"221.1421","LAUNCH_DATE":"2020-01-29","EPHEMERIS_TYPE":"0","NORAD_CAT_ID":"45046","OBJECT_TYPE":"PAYLOAD","CENTER_NAME":"EARTH","COUNTRY_CODE":"US","SEMIMAJOR_AXIS":"6869.510","INCLINATION":"52.9869","MEAN_ELEMENT_THEORY":"SGP4","RA_OF_ASC_NODE":"187.7276","PERIOD":"94.438","TLE_LINE1":"1 45046U 20006C   22342.55160680  .00047225  00000-0  18793-2 0  9991","REV_AT_EPOCH":"15787","MEAN_MOTION":"15.24804258","DECAY_DATE":null,"CLASSIFICATION_TYPE":"U","APOAPSIS":"496.120","ARG_OF_PERICENTER":"139.0096","TIME_SYSTEM":"UTC","BSTAR":"0.00187930000000","TLE_LINE2":"2 45046  52.9869 187.7276 0006907 139.0096 221.1421 15.24804258157878","RCS_SIZE":"LARGE","SITE":"AFETR","OBJECT_ID":"2020-006C","MEAN_MOTION_DDOT":"0.0000000000000","ELEMENT_SET_NO":"999","ECCENTRICITY":"0.00069070","OBJECT_NAME":"STARLINK-1129","FILE":"3684614"},{"GP_ID":"219773342","MEAN_MOTION_DOT":"0.00000618","REF_FRAME":"TEME","NORAD_CAT_ID":"45047","OBJECT_TYPE":"PAYLOAD","LAUNCH_DATE":"2020-01-29","EPHEMERIS_TYPE":"0","MEAN_ANOMALY":"292.2204","PERIAPSIS":"546.184","EPOCH":"2022-12-08T08:47:21.728544","MEAN_ELEMENT_THEORY":"SGP4","RA_OF_ASC_NODE":"216.7282","PERIOD":"95.592","SEMIMAJOR_AXIS":"6925.365","COUNTRY_CODE":"US","INCLINATION":"53.0535","CENTER_NAME":"EARTH","DECAY_DATE":null,"MEAN_MOTION":"15.06394652","CLASSIFICATION_TYPE":"U","REV_AT_EPOCH":"15750","TLE_LINE1":"1 45047U 20006D   22342.36622371  .00000618  00000-0  60385-4 0  9992","RCS_SIZE":"LARGE","TLE_LINE2":"2 45047  53.0535 216.7282 0001511  67.8945 292.2204 15.06394652157508","BSTAR":"0.00006038500000","TIME_SYSTEM":"UTC","APOAPSIS":"548.276","ARG_OF_PERICENTER":"67.8945","MEAN_MOTION_DDOT":"0.0000000000000","OBJECT_ID":"2020-006D","SITE":"AFETR","FILE":"3684614","OBJECT_NAME":"STARLINK-1131","ELEMENT_SET_NO":"999","ECCENTRICITY":"0.00015110"},{"TIME_SYSTEM":"UTC","ARG_OF_PERICENTER":"89.2661","APOAPSIS":"548.076","TLE_LINE2":"2 45048  53.0543 216.6802 0001266  89.2661 270.8473 15.06404543157506","RCS_SIZE":"LARGE","BSTAR":"0.00012434000000","TLE_LINE1":"1 45048U 20006E   22342.37359249  .00001571  00000-0  12434-3 0  9995","MEAN_MOTION":"15.06404543","DECAY_DATE":null,"CLASSIFICATION_TYPE":"U","REV_AT_EPOCH":"15750","OBJECT_NAME":"STARLINK-1134","ECCENTRICITY":"0.00012660","ELEMENT_SET_NO":"999","FILE":"3684614","SITE":"AFETR","MEAN_MOTION_DDOT":"0.0000000000000","OBJECT_ID":"2020-006E","REF_FRAME":"TEME","MEAN_MOTION_DOT":"0.00001571","GP_ID":"219772099","CENTER_NAME":"EARTH","PERIOD":"95.592","RA_OF_ASC_NODE":"216.6802","MEAN_ELEMENT_THEORY":"SGP4","INCLINATION":"53.0543","SEMIMAJOR_AXIS":"6925.335","COUNTRY_CODE":"US","PERIAPSIS":"546.323","MEAN_ANOMALY":"270.8473","EPOCH":"2022-12-08T08:57:58.391136","OBJECT_TYPE":"PAYLOAD","NORAD_CAT_ID":"45048","EPHEMERIS_TYPE":"0","LAUNCH_DATE":"2020-01-29"},{"PERIOD":"95.084","RA_OF_ASC_NODE":"209.0200","MEAN_ELEMENT_THEORY":"SGP4","INCLINATION":"53.0550","SEMIMAJOR_AXIS":"6900.797","COUNTRY_CODE":"US","CENTER_NAME":"EARTH","OBJECT_TYPE":"PAYLOAD","NORAD_CAT_ID":"45049","EPHEMERIS_TYPE":"0","LAUNCH_DATE":"2020-01-29","PERIAPSIS":"520.188","EPOCH":"2022-12-08T08:54:27.067104","MEAN_ANOMALY":"160.3245","MEAN_MOTION_DOT":"-0.00024133","REF_FRAME":"TEME","GP_ID":"219772348","FILE":"3684614","OBJECT_NAME":"STARLINK-1135","ECCENTRICITY":"0.00035850","ELEMENT_SET_NO":"999","MEAN_MOTION_DDOT":"0.0000000000000","OBJECT_ID":"2020-006F","SITE":"AFETR","TLE_LINE2":"2 45049  53.0550 209.0200 0003585 199.7609 160.3245 15.14446335157614","RCS_SIZE":"LARGE","BSTAR":"-0.00128510000000","TIME_SYSTEM":"UTC","ARG_OF_PERICENTER":"199.7609","APOAPSIS":"525.136","DECAY_DATE":null,"CLASSIFICATION_TYPE":"U","MEAN_MOTION":"15.14446335","REV_AT_EPOCH":"15761","TLE_LINE1":"1 45049U 20006F   22342.37114661 -.00024133  00000-0 -12851-2 0  9996"},{"TIME_SYSTEM":"UTC","ARG_OF_PERICENTER":"76.8980","APOAPSIS":"547.956","TLE_LINE2":"2 45050  53.0556 216.6379 0001051  76.8980 283.2126 15.06395354157502","RCS_SIZE":"LARGE","BSTAR":"0.00030908000000","TLE_LINE1":"1 45050U 20006G   22342.38466284  .00004325  00000-0  30908-3 0  9993","DECAY_DATE":null,"MEAN_MOTION":"15.06395354","CLASSIFICATION_TYPE":"U","REV_AT_EPOCH":"15750","OBJECT_NAME":"STARLINK-1140","ECCENTRICITY":"0.00010510","ELEMENT_SET_NO":"999","FILE":"3684614","SITE":"AFETR","MEAN_MOTION_DDOT":"0.0000000000000","OBJECT_ID":"2020-006G","REF_FRAME":"TEME","MEAN_MOTION_DOT":"0.00004325","GP_ID":"219772599","CENTER_NAME":"EARTH","RA_OF_ASC_NODE":"216.6379","PERIOD":"95.592","MEAN_ELEMENT_THEORY":"SGP4","INCLINATION":"53.0556","COUNTRY_CODE":"US","SEMIMAJOR_AXIS":"6925.363","EPOCH":"2022-12-08T09:13:54.869376","PERIAPSIS":"546.500","MEAN_ANOMALY":"283.2126","NORAD_CAT_ID":"45050","OBJECT_TYPE":"PAYLOAD","EPHEMERIS_TYPE":"0","LAUNCH_DATE":"2020-01-29"},{"COUNTRY_CODE":"US","SEMIMAJOR_AXIS":"6881.832","INCLINATION":"53.0437","MEAN_ELEMENT_THEORY":"SGP4","RA_OF_ASC_NODE":"200.9927","PERIOD":"94.693","CENTER_NAME":"EARTH","LAUNCH_DATE":"2020-01-29","EPHEMERIS_TYPE":"0","NORAD_CAT_ID":"45051","OBJECT_TYPE":"PAYLOAD","MEAN_ANOMALY":"234.3869","PERIAPSIS":"500.419","EPOCH":"2022-12-08T08:20:55.121280","MEAN_MOTION_DOT":"0.00035199","REF_FRAME":"TEME","GP_ID":"219772842","FILE":"3684614","ELEMENT_SET_NO":"999","ECCENTRICITY":"0.00047630","OBJECT_NAME":"STARLINK-1141","OBJECT_ID":"2020-006H","MEAN_MOTION_DDOT":"0.0000000000000","SITE":"AFETR","BSTAR":"0.00158740000000","TLE_LINE2":"2 45051  53.0437 200.9927 0004763 125.7569 234.3869 15.20711017157725","RCS_SIZE":"LARGE","APOAPSIS":"506.975","ARG_OF_PERICENTER":"125.7569","TIME_SYSTEM":"UTC","REV_AT_EPOCH":"15772","DECAY_DATE":null,"MEAN_MOTION":"15.20711017","CLASSIFICATION_TYPE":"U","TLE_LINE1":"1 45051U 20006H   22342.34786020  .00035199  00000-0  15874-2 0  9990"}];
